GLOBALSTAR M024 [-]     
1 25883U 99043A   24073.48883866  .00000025  00000+0  31906-2 0  9995
2 25883  52.0060 340.1095 0002143  67.1555 103.6439 11.10157722 63699
GLOBALSTAR M027 [-]     
1 25884U 99043B   24073.60590675 -.00000051  00000+0  46203-3 0  9990
2 25884  52.0233  44.7751 0021317 328.3149  31.6361 11.04367611 90353
GLOBALSTAR M054 [-]     
1 25885U 99043C   24073.46411462 -.00000066  00000+0  14388-3 0  9996
2 25885  52.0110 249.7098 0005545 103.0284 269.7021 11.39206411 66541
GLOBALSTAR M053 [-]     
1 25886U 99043D   24073.56510001 -.00000088  00000+0 -57053-3 0  9998
2 25886  51.9968 171.0083 0003127  32.7010 340.8686 11.27653839 67480
GLOBALSTAR M058 [-]     
1 25907U 99049A   24073.23186884 -.00000080  00000+0  58191-4 0  9996
2 25907  51.9918 260.0223 0003208 104.3971 255.7220 11.93178891486516
GLOBALSTAR M050 [-]     
1 25908U 99049B   24073.06186310 -.00000037  00000+0  57485-3 0  9998
2 25908  51.9996 302.6035 0008747 188.1865 338.8259 12.07430250 92482
GLOBALSTAR M033 [-]     
1 25909U 99049C   24073.60587412 -.00000070  00000+0  20451-3 0  9997
2 25909  51.9896 204.7538 0012006  47.5276 312.6584 12.20269171479510
GLOBALSTAR M055 [-]     
1 25910U 99049D   24073.44011347 -.00000063  00000+0  26994-3 0  9990
2 25910  51.9995 238.3892 0006194 251.1778 108.8402 12.29397139111612
